NORAD_CAT_ID,OBJECT_NAME,OBJECT_TYPE,EPOCH,MEAN_MOTION,ECCENTRICITY,INCLINATION,RA_OF_ASC_NODE,ARG_OF_PERICENTER,MEAN_ANOMALY,BSTAR,MEAN_MOTION_DOT,MEAN_MOTION_DDOT,TLE_LINE0,TLE_LINE1,TLE_LINE2,SEMIMAJOR_AXIS,PERIOD,APOGEE,PERIGEE,DECAYED
52483.0,STARLINK-3875,PAYLOAD,2024-08-15 07:56:04,15.08859576,0.0001439,53.2168,94.0528,88.4072,271.7085,0.00088561,0.00013842,0.0,0 STARLINK-3875,1 52483U 22049AJ  24228.33061089  .00013842  00000-0  88561-3 0  9996,2 52483  53.2168  94.0528 0001439  88.4072 271.7085 15.08859576127377,6917.821,95.436,540.681,538.69,0.0
52483.0,STARLINK-3875,PAYLOAD,2024-08-15 22:14:32,15.08857715,0.0001548,53.2172,91.3773,88.604,271.513,0.0001855,2.667e-05,0.0,0 STARLINK-3875,1 52483U 22049AJ  24228.92676294  .00002667  00000-0  18550-3 0  9995,2 52483  53.2172  91.3773 0001548  88.6040 271.5130 15.08857715126384,6917.826,95.436,540.762,538.62,0.0
52483.0,STARLINK-3875,PAYLOAD,2024-08-16 22:05:18,15.08849451,0.0001585,53.2175,86.916,84.6872,275.4301,-0.00019055,-3.32e-05,0.0,0 STARLINK-3875,1 52483U 22049AJ  24229.92035581 -.00003320  00000-0 -19055-3 0  9994,2 52483  53.2175  86.9160 0001585  84.6872 275.4301 15.08849451126535,6917.852,95.437,540.813,538.62,0.0
52483.0,STARLINK-3875,PAYLOAD,2024-08-17 21:56:05,15.08846829,0.0001578,53.2168,82.453,74.7432,285.3735,-2.759e-05,-7.27e-06,0.0,0 STARLINK-3875,1 52483U 22049AJ  24230.91395472 -.00000727  00000-0 -27590-4 0  9995,2 52483  53.2168  82.4530 0001578  74.7432 285.3735 15.08846829127766,6917.86,95.437,540.816,538.633,0.0
52483.0,STARLINK-3875,PAYLOAD,2024-08-18 13:49:57,15.08846631,0.0001479,53.2177,79.4811,83.0123,277.1037,0.00014133,1.962e-05,0.0,0 STARLINK-3875,1 52483U 22049AJ  24231.57635775  .00001962  00000-0  14133-3 0  9999,2 52483  53.2177  79.4811 0001479  83.0123 277.1037 15.08846631126780,6917.86,95.437,540.748,538.702,0.0
52483.0,STARLINK-3875,PAYLOAD,2024-08-18 20:11:28,15.08846537,0.0001207,53.2175,78.2898,111.0892,249.0229,8.2585e-05,1.027e-05,0.0,0 STARLINK-3875,1 52483U 22049AJ  24231.84130768  .00001027  00000-0  82585-4 0  9990,2 52483  53.2175  78.2898 0001207 111.0892 249.0229 15.08846537127905,6917.86,95.437,540.56,538.89,0.0
52483.0,STARLINK-3875,PAYLOAD,2024-08-19 07:19:10,15.08846998,0.0001227,53.2174,76.2084,98.6972,261.4159,7.6144e-05,9.24e-06,0.0,0 STARLINK-3875,1 52483U 22049AJ  24232.30498619  .00000924  00000-0  76144-4 0  9993,2 52483  53.2174  76.2084 0001227  98.6972 261.4159 15.08846998127978,6917.859,95.437,540.573,538.875,0.0
52483.0,STARLINK-3875,PAYLOAD,2024-08-19 23:13:03,15.08834538,0.0001144,53.2171,73.2345,105.772,254.3398,-4.6126e-05,-1.022e-05,0.0,0 STARLINK-3875,1 52483U 22049AJ  24232.96739775 -.00001022  00000-0 -46126-4 0  9995,2 52483  53.2171  73.2345 0001144 105.7720 254.3398 15.08834538126995,6917.897,95.438,540.553,538.971,0.0
52483.0,STARLINK-3875,PAYLOAD,2024-08-20 19:53:03,15.08844379,0.0001276,53.2173,69.3694,96.1666,263.9471,4.1798e-05,3.77e-06,0.0,0 STARLINK-3875,1 52483U 22049AJ  24233.82851055  .00000377  00000-0  41798-4 0  9997,2 52483  53.2173  69.3694 0001276  96.1666 263.9471 15.08844379127126,6917.867,95.437,540.615,538.849,0.0
52483.0,STARLINK-3875,PAYLOAD,2024-08-20 23:03:49,15.08845705,0.0001231,53.2172,68.7742,98.4114,261.7017,5.423e-05,5.75e-06,0.0,0 STARLINK-3875,1 52483U 22049AJ  24233.96098926  .00000575  00000-0  54230-4 0  9997,2 52483  53.2172  68.7742 0001231  98.4114 261.7017 15.08845705128224,6917.863,95.437,540.58,538.876,0.0
52483.0,STARLINK-3875,PAYLOAD,2024-08-21 19:43:51,15.08833661,0.0001254,53.2178,64.9059,90.5522,269.5614,5.2674e-05,5.5e-06,0.0,0 STARLINK-3875,1 52483U 22049AJ  24234.82212143  .00000550  00000-0  52674-4 0  9995,2 52483  53.2178  64.9059 0001254  90.5522 269.5614 15.08833661127271,6917.9,95.438,540.632,538.897,0.0
